OBJECT_NAME,OBJECT_ID,EPOCH,MEAN_MOTION,ECCENTRICITY,INCLINATION,RA_OF_ASC_NODE,ARG_OF_PERICENTER,MEAN_ANOMALY,EPHEMERIS_TYPE,CLASSIFICATION_TYPE,NORAD_CAT_ID,ELEMENT_SET_NO,REV_AT_EPOCH,BSTAR,MEAN_MOTION_DOT,MEAN_MOTION_DDOT
STARLINK-32379,2024-202G,2026-07-05T22:33:07.732512,15.27553152,.00015988,43.0016,278.8237,266.3287,93.7382,0,U,61851,999,9354,-.20556394E-3,-.591E-4,0
STARLINK-32433,2024-202H,2026-07-06T07:35:49.673760,15.27570830,.0001521,43.0023,287.7421,290.4754,69.5934,0,U,61852,999,9348,-.1582681E-3,-.4614E-4,0
STARLINK-32394,2024-202J,2026-07-06T07:39:32.954688,15.27542241,.00016825,43.0023,287.7615,289.7207,70.3463,0,U,61853,999,9347,-.16513687E-3,-.4798E-4,0
STARLINK-32486,2024-202K,2026-07-06T07:45:03.703392,15.27567602,.00015276,43.0037,287.7921,271.0307,89.0369,0,U,61854,999,9348,-.16792617E-3,-.4878E-4,0
STARLINK-32391,2024-202L,2026-07-06T07:50:35.282400,15.27594937,.00011671,43.0020,287.8206,272.1714,87.9004,0,U,61855,999,9347,.56183169E-4,.1285E-4,0
STARLINK-32483,2024-202M,2026-07-06T07:56:11.641920,15.27551141,.00006039,43.0019,287.8478,220.6608,139.4199,0,U,61856,999,9348,-.17800815E-3,-.5152E-4,0
STARLINK-32451,2024-202N,2026-07-06T17:32:13.657632,15.27562254,.0001307,43.0000,285.6859,197.2585,162.8222,0,U,61857,999,9354,-.18231E-3,-.5273E-4,0
STARLINK-32556,2024-202P,2026-07-06T08:01:44.523840,15.27561174,.00005814,43.0018,287.8759,260.4729,99.6057,0,U,61858,999,9348,-.15102073E-3,-.4413E-4,0
STARLINK-32466,2024-202Q,2026-07-06T08:10:58.777248,15.27563716,.00016189,43.0033,287.9271,281.8879,78.1791,0,U,61859,999,9348,-.24734551E-4,-.942E-5,0
STARLINK-32316,2024-202R,2026-07-06T07:47:38.161536,15.27561332,.00016895,43.0050,284.3416,290.7045,69.3626,0,U,61860,999,9351,-.11634682E-3,-.3461E-4,0
STARLINK-32415,2024-202S,2026-07-06T08:22:05.638368,15.27563917,.0001785,43.0047,287.9862,279.2890,80.7760,0,U,61861,999,9347,-.42027608E-4,-.1418E-4,0
STARLINK-32393,2024-202T,2026-07-06T08:16:32.273472,15.27564446,.00012997,43.0001,287.9521,240.6649,119.4073,0,U,61862,999,9348,-.88300774E-4,-.269E-4,0
STARLINK-32324,2024-202U,2026-07-06T08:33:12.211776,15.27553413,.0001394,43.0039,288.0483,286.6922,73.3777,0,U,61863,999,9347,-.12099143E-3,-.3587E-4,0
STARLINK-32318,2024-202V,2026-07-05T07:35:53.585088,15.27584791,.0000375,42.9976,293.9976,144.2274,215.8602,0,U,61864,999,9332,.89658E-4,.2207E-4,0
STARLINK-32401,2024-202W,2026-07-06T07:13:51.144960,15.27543379,.0002564,43.0042,288.4878,285.1246,74.9322,0,U,61865,999,9347,-.81879568E-4,-.2513E-4,0
STARLINK-32588,2024-202X,2026-07-06T07:04:35.507424,15.27557490,.00012801,43.0012,288.4418,278.0913,81.9793,0,U,61866,999,9347,-.48216238E-4,-.1588E-4,0
STARLINK-32569,2024-202Y,2026-07-05T23:28:36.799680,15.27554394,.00020065,43.0063,290.3611,272.3101,87.7521,0,U,61867,999,9342,-.21086199E-3,-.6056E-4,0
2024-203A,2024-203A,2026-07-06T19:54:55.042272,15.30596254,.000993,97.4182,258.1152,251.2343,108.7821,0,U,61869,999,9196,.38188E-3,.11239E-3,0
2024-203B,2024-203B,2026-07-06T19:52:03.297216,15.30825456,.0009509,97.4162,258.1341,249.1230,110.8993,0,U,61870,999,9197,.37765E-3,.11192E-3,0
2024-203C,2024-203C,2026-07-06T20:26:29.229216,15.25641767,.0009873,97.4227,256.9364,271.8425,88.1682,0,U,61871,999,9186,.3146E-3,.7942E-4,0
2024-203D,2024-203D,2026-07-06T20:52:34.907808,15.27517749,.0009116,97.4241,257.9155,268.1382,91.8814,0,U,61872,999,9192,.35336E-3,.9451E-4,0
STARLINK-11402 [DTC],2024-204A,2026-07-06T06:21:57.459168,15.69712038,.00011658,53.1594,132.0862,97.9105,262.2045,0,U,61874,999,9612,.24067651E-4,.2328E-4,0
STARLINK-11316 [DTC],2024-204B,2026-07-06T03:25:30.388512,15.69702276,.0001568,53.1594,131.9974,72.4130,287.7059,0,U,61875,999,9552,.13834908E-4,.1087E-4,0
STARLINK-11321 [DTC],2024-204D,2026-07-06T03:04:25.457088,15.69742233,.00009451,53.1573,132.6346,91.1298,268.9828,0,U,61877,999,9550,.48663308E-4,.5318E-4,0
STARLINK-11314 [DTC],2024-204E,2026-07-06T06:00:46.508256,15.69710330,.00013249,53.1577,131.9705,93.1574,266.9596,0,U,61878,999,9553,.4373769E-4,.4713E-4,0
STARLINK-11324 [DTC],2024-204F,2026-07-06T02:50:20.826240,15.69700928,.00017685,53.1580,132.5651,101.7114,258.4103,0,U,61879,999,9551,.25841301E-4,.2541E-4,0
STARLINK-11328 [DTC],2024-204G,2026-07-06T02:43:17.619168,15.69696999,.00011901,53.1587,132.5335,105.4570,254.6579,0,U,61880,999,9551,-.11442683E-4,-.1974E-4,0
STARLINK-11329 [DTC],2024-204H,2026-07-06T02:36:13.748544,15.69697137,.0001645,53.1584,132.4990,104.4412,255.6789,0,U,61881,999,9551,-.10857611E-4,-.1904E-4,0
STARLINK-11398 [DTC],2024-204J,2026-07-06T00:57:29.279808,15.69669689,.00011315,53.1570,132.7833,73.5344,286.5798,0,U,61882,999,9550,-.7388371E-4,-.9514E-4,0
STARLINK-11383 [DTC],2024-204K,2026-07-06T05:18:21.405312,15.69741029,.00020474,53.1592,131.7711,128.9147,231.2054,0,U,61883,999,9553,-.9354558E-5,-.1725E-4,0
STARLINK-11359 [DTC],2024-204L,2026-07-06T02:22:04.907424,15.69709507,.00018108,53.1596,132.4319,132.9773,227.1397,0,U,61884,999,9551,.20949823E-4,.1949E-4,0
STARLINK-11301 [DTC],2024-204M,2026-07-06T06:42:59.662080,15.69720242,.00009585,53.1576,131.4269,118.2857,241.8258,0,U,61885,999,9554,.23631041E-4,.2276E-4,0
STARLINK-11351 [DTC],2024-204N,2026-07-06T03:32:31.820928,15.69727643,.00011849,53.1591,132.0200,142.4141,217.6960,0,U,61886,999,9552,.92981158E-4,.10698E-3,0
STARLINK-32410,2024-204P,2026-07-06T14:16:39.891360,15.34410747,.0001185,53.1605,292.5747,73.0562,287.0570,0,U,61887,999,9333,-.65408E-4,-.2586E-4,0
STARLINK-32377,2024-204Q,2026-07-06T12:39:52.046208,15.34369248,.0001531,53.1581,292.8621,94.2801,265.8377,0,U,61888,999,9331,.59943E-3,.19911E-3,0
STARLINK-32292,2024-204R,2026-07-06T14:31:49.507968,15.34390604,.0001227,53.1586,292.6375,76.0175,284.0964,0,U,61889,999,9333,-.29918E-5,-.477E-5,0
STARLINK-32501,2024-204S,2026-07-06T13:19:08.597568,15.34471521,.0001254,53.1603,293.0333,91.8261,268.2885,0,U,61890,999,9332,.20286E-3,.6499E-4,0
STARLINK-32383,2024-204T,2026-07-06T14:43:55.172064,15.34406607,.0001051,53.1604,292.6870,79.4239,280.6882,0,U,61891,999,9333,.83743E-4,.2455E-4,0
STARLINK-32239,2024-204U,2026-07-06T14:50:40.522848,15.34385218,.0000998,53.1607,294.1343,101.9115,258.1999,0,U,61892,999,9331,-.12771E-3,-.4686E-4,0
STARLINK-32489,2024-204V,2026-07-06T12:30:46.107072,15.34386156,.0001808,53.1600,292.8260,42.5749,317.5394,0,U,61893,999,9331,-.20821E-4,-.108E-4,0
2024-205A,2024-205A,2026-07-06T20:04:10.985664,15.12184250,.0017933,97.4117,257.3481,92.2351,268.0933,0,U,61894,999,9117,.32157E-3,.5507E-4,0
2024-205B,2024-205B,2026-07-06T20:38:15.933696,15.30895907,.0008451,97.4126,265.4943,330.6424,29.4341,0,U,61895,999,9169,.29515E-3,.8744E-4,0
2024-205C,2024-205C,2026-07-06T20:48:06.721344,15.12669010,.0048983,97.4111,258.1383,294.4455,65.1670,0,U,61896,999,9120,.32647E-3,.5813E-4,0
2024-205D,2024-205D,2026-07-06T20:07:01.513344,15.18268669,.0011307,97.4084,258.9183,357.0171,3.0994,0,U,61897,999,9126,.22202E-3,.4489E-4,0
2024-205E,2024-205E,2026-07-06T19:41:44.350080,15.11317754,.0054035,97.4102,257.8636,294.3570,65.2025,0,U,61898,999,9118,.30364E-3,.5231E-4,0
2024-205F,2024-205F,2026-07-06T20:17:30.926112,15.15689799,.000512,97.4083,258.7033,329.8807,30.2131,0,U,61899,999,9125,.32254E-3,.6078E-4,0
2024-205G,2024-205G,2026-07-06T19:50:49.996320,15.11026819,.0020585,97.4116,257.0740,84.2717,276.0860,0,U,61900,999,9112,.32448E-3,.5387E-4,0
2024-205H,2024-205H,2026-07-06T20:58:48.976608,15.32275827,.0008331,97.4098,265.8986,333.9976,26.0846,0,U,61901,999,9173,.32926E-3,.10195E-3,0
2024-205J,2024-205J,2026-07-06T20:51:55.423008,15.12401046,.0014849,97.4127,257.6834,102.8091,257.4800,0,U,61902,999,9116,.36624E-3,.6312E-4,0
2024-205K,2024-205K,2026-07-06T20:37:34.533408,15.31289511,.0008263,97.4094,264.8134,333.6328,26.4491,0,U,61903,999,9165,.36245E-3,.10891E-3,0
2024-205L,2024-205L,2026-07-06T20:45:59.925888,15.08292387,.0065415,97.4120,257.6293,298.5677,60.8979,0,U,61904,999,9116,.29034E-3,.4664E-4,0
2024-205M,2024-205M,2026-07-06T19:02:40.356960,15.29872976,.0004038,97.3832,262.1604,226.9257,133.1646,0,U,61905,999,9150,.20499E-3,.5854E-4,0
2024-205N,2024-205N,2026-07-06T20:54:44.119872,15.38836751,.0006775,97.4151,268.8212,326.8264,33.2556,0,U,61906,999,9190,.45403E-3,.17386E-3,0
2024-205P,2024-205P,2026-07-06T20:40:08.150880,15.17338178,.001142,97.4117,259.8938,358.0475,2.0712,0,U,61907,999,9131,.17396E-3,.3409E-4,0
2024-205Q,2024-205Q,2026-07-06T20:30:14.308128,15.17569138,.0011408,97.4119,259.9347,357.4395,2.6779,0,U,61908,999,9131,.21639E-3,.4285E-4,0
KOREASAT 6A,2024-206A,2026-07-06T19:28:44.229792,1.00272343,.0000812,0.0378,222.5952,223.4168,246.9727,0,U,61910,999,603,0,-.347E-5,0
STARLINK-32303,2024-207A,2026-07-06T08:56:41.463168,15.27567589,.00016294,43.0027,331.4372,264.0841,95.9825,0,U,61912,999,9346,.70226647E-3,.19106E-3,0
STARLINK-32434,2024-207B,2026-07-06T09:35:32.827200,15.27579898,.00013725,43.0035,331.6464,274.7851,85.2844,0,U,61913,999,9287,.10077512E-2,.27573E-3,0
STARLINK-32460,2024-207C,2026-07-06T09:50:09.070080,15.27569926,.00012346,42.9997,330.8598,259.8918,100.1795,0,U,61914,999,9288,.89330853E-3,.24394E-3,0
STARLINK-32559,2024-207D,2026-07-06T20:00:01.999008,15.43841691,.0002004,43.0006,327.3477,283.8496,353.2972,0,U,61915,999,585,.16716E-1,.839911E-2,0
STARLINK-32541,2024-207E,2026-07-06T11:05:18.362976,15.27574746,.0001957,43.0030,334.7114,271.1824,88.8804,0,U,61916,999,9284,.588921E-3,.15976E-3,0
STARLINK-32544,2024-207F,2026-07-05T18:40:01.011072,15.27556617,.00016477,43.0023,334.7127,271.9645,88.1018,0,U,61917,999,9278,.12376498E-2,.33928E-3,0
STARLINK-32555,2024-207G,2026-07-06T11:21:58.538880,15.27557126,.00018214,43.0053,334.7992,276.5823,83.4822,0,U,61918,999,9284,.49494858E-3,.13373E-3,0
STARLINK-32547,2024-207H,2026-07-06T09:51:59.563584,15.27569507,.00012862,42.9977,330.8681,273.2336,86.8368,0,U,61919,999,9287,.66093299E-3,.17964E-3,0
